BEIDOU-2 IGSO-1 (C06)   
1 36828U 10036A   24144.51770988 -.00000027  00000+0  00000+0 0  9995
2 36828  54.2484 169.7852 0042064 206.4471 158.2017  1.00290062 50643
BEIDOU-2 G4 (C04)       
1 37210U 10057A   24145.14055331 -.00000091  00000+0  00000+0 0  9993
2 37210   1.7883  68.4588 0002679 180.2403 204.2327  1.00271937 49725
BEIDOU-2 IGSO-2 (C07)   
1 37256U 10068A   24144.79382781 -.00000210  00000+0  00000+0 0  9990
2 37256  48.9262 281.1180 0034545 209.2930 143.9576  1.00257884 49220
BEIDOU-2 IGSO-3 (C08)   
1 37384U 11013A   24144.63421851 -.00000199  00000+0  00000+0 0  9994
2 37384  61.3170  47.3491 0026131 177.0260 353.6526  1.00264936 48091
BEIDOU-2 IGSO-4 (C09)   
1 37763U 11038A   24144.57283257  .00000072  00000+0  00000+0 0  9990
2 37763  54.5543 172.3922 0125008 228.8184 142.1809  1.00264482 47080
BEIDOU-2 IGSO-5 (C10)   
1 37948U 11073A   24144.84123340 -.00000151  00000+0  00000+0 0  9999
2 37948  49.0578 280.8021 0096910 219.1374 137.7244  1.00257369 45830
BEIDOU-2 G5 (C05)       
1 38091U 12008A   24145.12045109  .00000076  00000+0  00000+0 0  9991
2 38091   2.0179  70.6691 0007264 271.5849   2.0761  1.00275891 44913
BEIDOU-2 M3 (C11)       
1 38250U 12018A   24143.15894305 -.00000066  00000+0  00000+0 0  9990
2 38250  56.3560 330.2066 0020574 264.5191  95.2591  1.86231377 81863
BEIDOU-2 M4 (C12)       
1 38251U 12018B   24143.08925267 -.00000066  00000+0  00000+0 0  9995
2 38251  56.2634 329.4825 0011472 268.1974  91.6833  1.86232108 81866
BEIDOU-2 M6 (C14)       
1 38775U 12050B   24144.40952807 -.00000012  00000+0  00000+0 0  9990
2 38775  55.8949  87.9909 0014514 335.8420  24.0517  1.86231148 79250
BEIDOU-2 G6 (C02)       
1 38953U 12059A   24144.83905782 -.00000154  00000+0  00000+0 0  9991
2 38953   2.4983  80.6515 0010622 316.4912 230.7797  1.00267953 42349
BEIDOU-3S IGSO-1S (C31) 
1 40549U 15019A   24144.96438309 -.00000163  00000+0  00000+0 0  9994
2 40549  50.6204 304.4750 0037515 191.6740 185.3163  1.00255103 33508
BEIDOU-3S M2S (C58)     
1 40748U 15037A   24144.36361253 -.00000064  00000+0  00000+0 0  9992
2 40748  55.4953 327.8765 0007859 252.5808 107.3395  1.86233234 60065
BEIDOU-3S M1S (C57)     
1 40749U 15037B   24141.94923533 -.00000070  00000+0  00000+0 0  9996
2 40749  55.4998 327.9453 0004358   3.7494 356.2658  1.86233097 60028
BEIDOU-3S IGSO-2S (C56) 
1 40938U 15053A   24144.78792497 -.00000148  00000+0  00000+0 0  9998
2 40938  50.3976 267.6905 0051638 189.2610 164.8535  1.00268075 31781
BEIDOU-2 IGSO-6 (C13)   
1 41434U 16021A   24144.70054870 -.00000173  00000+0  00000+0 0  9992
2 41434  59.1420  45.5967 0048130 223.7601 320.7137  1.00275838 29910
BEIDOU-2 G7 (C03)       
1 41586U 16037A   24144.84632667 -.00000334  00000+0  00000+0 0  9997
2 41586   1.8490  69.3576 0009820   3.3423 224.4584  1.00274297 29224
BEIDOU-3 M1 (C19)       
1 43001U 17069A   24144.17558825 -.00000013  00000+0  00000+0 0  9990
2 43001  56.0452  88.0924 0011736 305.9749  53.8779  1.86231504 44544
BEIDOU-3 M2 (C20)       
1 43002U 17069B   24144.11277260 -.00000013  00000+0  00000+0 0  9996
2 43002  56.0445  88.1300 0009770 326.7918  33.1083  1.86231030 44532
BEIDOU-3 M7 (C27)       
1 43107U 18003A   24144.39912795 -.00000065  00000+0  00000+0 0  9997
2 43107  54.9531 328.4770 0005073  71.8556 288.2068  1.86232520 43305
BEIDOU-3 M8 (C28)       
1 43108U 18003B   24144.33935348 -.00000065  00000+0  00000+0 0  9991
2 43108  54.9463 328.4647 0002353 262.6090  97.3714  1.86230981 43300
BEIDOU-3 M4 (C22)       
1 43207U 18018A   24144.24366063 -.00000013  00000+0  00000+0 0  9992
2 43207  56.0040  88.1802 0007185 347.9737  11.9706  1.86231424 42686
BEIDOU-3 M3 (C21)       
1 43208U 18018B   24144.31023612 -.00000012  00000+0  00000+0 0  9990
2 43208  56.0036  88.1824 0009597 316.8993  42.9873  1.86231355 42686
BEIDOU-3 M9 (C29)       
1 43245U 18029A   24143.99480103 -.00000066  00000+0  00000+0 0  9997
2 43245  54.8381 326.2013 0000626  78.9619 281.0495  1.86232782 41834
BEIDOU-3 M10 (C30)      
1 43246U 18029B   24143.92451827 -.00000066  00000+0  00000+0 0  9992
2 43246  54.8348 326.2315 0004194  21.6032 338.4191  1.86232957 41813
BEIDOU-2 IGSO-7 (C16)   
1 43539U 18057A   24144.98773028 -.00000035  00000+0  00000+0 0  9991
2 43539  55.1381 169.5793 0075039 233.3998 306.7626  1.00260496 21562
BEIDOU-3 M5 (C23)       
1 43581U 18062A   24144.14722980  .00000072  00000+0  00000+0 0  9993
2 43581  54.1338 207.9876 0004459 274.0369  86.0059  1.86228837 39576
BEIDOU-3 M6 (C24)       
1 43582U 18062B   24144.01321220  .00000072  00000+0  00000+0 0  9992
2 43582  54.1335 207.9817 0004123   7.5636 352.5359  1.86229607 39573
BEIDOU-3 M12 (C26)      
1 43602U 18067A   24143.94683234  .00000074  00000+0  00000+0 0  9999
2 43602  54.2239 206.6625 0006715  20.6054 339.5159  1.86231796 39050
BEIDOU-3 M11 (C25)      
1 43603U 18067B   24143.54381351  .00000072  00000+0  00000+0 0  9999
2 43603  54.2212 206.6415 0003625   5.1607 354.9357  1.86231669 39070
BEIDOU-3 M13 (C32)      
1 43622U 18072A   24144.04140639 -.00000014  00000+0  00000+0 0  9991
2 43622  55.9747  87.7184 0008270 305.7224  54.1624  1.86231529 38595
BEIDOU-3 M14 (C33)      
1 43623U 18072B   24144.44381454 -.00000013  00000+0  00000+0 0  9997
2 43623  55.9768  87.6981 0006337 328.6853  31.2391  1.86231524 38599
BEIDOU-3 M16 (C35)      
1 43647U 18078A   24144.60671819 -.00000064  00000+0  00000+0 0  9990
2 43647  54.7339 326.2807 0007560  23.6435 336.3944  1.86232309 38104
BEIDOU-3 M15 (C34)      
1 43648U 18078B   24143.12505609 -.00000069  00000+0  00000+0 0  9995
2 43648  54.7308 326.3349 0004733  37.5208 322.5188  1.86232339 38092
BEIDOU-3 G1 (C59)       
1 43683U 18085A   24144.86916135 -.00000257  00000+0  00000+0 0  9993
2 43683   2.1320 110.5069 0004323 346.8073 237.6020  1.00271044 20493
BEIDOU-3 M17 (C36)      
1 43706U 18093A   24144.34896698  .00000073  00000+0  00000+0 0  9997
2 43706  54.2168 207.9172 0009479 279.5629  80.4245  1.86228467 37484
BEIDOU-3 M18 (C37)      
1 43707U 18093B   24144.21450548  .00000073  00000+0  00000+0 0  9994
2 43707  54.2175 207.9136 0007409 306.4410  53.5848  1.86229938 37475
BEIDOU-3 IGSO-1 (C38)   
1 44204U 19023A   24144.63810685 -.00000229  00000+0  00000+0 0  9993
2 44204  57.6066  45.4818 0018974 211.5838 331.7230  1.00256918 18799
BEIDOU-2 G8 (C01)       
1 44231U 19027A   24145.13733347 -.00000227  00000+0  00000+0 0  9990
2 44231   1.8897  73.7594 0002224 158.9189 203.5467  1.00272461 18510
BEIDOU-3 IGSO-2 (C39)   
1 44337U 19035A   24144.70886701 -.00000038  00000+0  00000+0 0  9991
2 44337  55.1741 165.4825 0033122 209.4121 238.2595  1.00248865 18105
BEIDOU-3 M24 (C46)      
1 44542U 19061A   24144.28426466  .00000073  00000+0  00000+0 0  9997
2 44542  54.4445 208.2006 0007347 346.5960  13.4787  1.86231291 31736
BEIDOU-3 M23 (C45)      
1 44543U 19061B   24144.97492267  .00000073  00000+0  00000+0 0  9996
2 44543  54.4427 208.1465 0004795 326.8872  48.4804  1.86231715 31742
BEIDOU-3 IGSO-3 (C40)   
1 44709U 19073A   24143.80595775 -.00000206  00000+0  00000+0 0  9991
2 44709  56.0944 288.9922 0038267 180.5299 179.3801  1.00257245 16882
BEIDOU-3 M22 (C44)      
1 44793U 19078A   24143.05611004 -.00000069  00000+0  00000+0 0  9997
2 44793  54.5829 326.2694 0006671  31.6670 328.3797  1.86232274 30565
BEIDOU-3 M21 (C43)      
1 44794U 19078B   24144.25985804 -.00000065  00000+0  00000+0 0  9999
2 44794  54.5555 326.2044 0004467  30.2898 329.7397  1.86232684 30598
BEIDOU-3 M19 (C41)      
1 44864U 19090A   24144.79270507 -.00000011  00000+0  00000+0 0  9998
2 44864  55.9095  87.8664 0018889 284.5658 265.6491  1.86231752 30182
BEIDOU-3 M20 (C42)      
1 44865U 19090B   24144.63935587 -.00000012  00000+0  00000+0 0  9999
2 44865  55.9110  87.9047 0016897 297.0942 240.0482  1.86231693 30168
BEIDOU-3 G2 (C60)       
1 45344U 20017A   24144.83836164 -.00000122  00000+0  00000+0 0  9998
2 45344   2.2874  28.6764 0001031  60.1237 174.9712  1.00271193 15698
BEIDOU-3 G3 (C61)       
1 45807U 20040A   24145.05918397 -.00000334  00000+0  00000+0 0  9997
2 45807   0.7391  39.0804 0004817 294.3562  40.6000  1.00270356 14527
BEIDOU-3 G4             
1 56564U 23066A   24145.14055331 -.00000090  00000+0  00000+0 0  9999
2 56564   2.1833 288.2215 0005302 193.0039 331.6859  1.00271464  3843
BEIDOU-3 M25            
1 58654U 23207A   24143.80556589 -.00000016  00000+0  00000+0 0  9998
2 58654  55.0914  87.9325 0004141 301.6890  58.2320  1.86232328  2776
BEIDOU-3 M26            
1 58655U 23207B   24144.67837831 -.00000012  00000+0  00000+0 0  9993
2 58655  55.0941  87.8880 0004535 283.0615  76.8504  1.86231944  2770
